No,model,name,address,x,y,gover
850,V02Q1940043,19ABBB구로구-0012,구로구-0012,37.49002864,126.8835537,구로구
849,V02Q1940044,19ABBB구로구-0014,구로구-0014,37.49183115,126.8891554,구로구
848,V02Q1940045,19ABBB구로구-0011,구로구-0011,37.48958795,126.8764395,구로구
847,V02Q1940046,19ABBB구로구-0001,구로구-0001,37.49440262,126.8314721,구로구
846,V02Q1940047,19ABBB구로구-0005,구로구-0005,37.48214478,126.8893389,구로구
845,V02Q1940049,19ABBB동대문구-0007,동대문구-0007,37.57668991,127.0362773,동대문구
844,V02Q1940050,19ABBB구로구-0006,구로구-0006,37.49954171,126.8507733,구로구
843,V02Q1940051,19ABBB구로구-0008,구로구-0008,37.48455732,126.8537096,구로구
842,V02Q1940052,19ABBB구로구-0013,구로구-0013,37.48718079,126.8896263,구로구
841,V02Q1940053,19AAAA중구-0016,중구-0016,37.56504075,126.9788859,중구
840,V02Q1940054,19ABBB구로구-0007,구로구-0007,37.49049118,126.8553777,구로구
839,V02Q1940055,19ABBB구로구-0015,구로구-0015,37.50111379,126.8923967,구로구
838,V02Q1940056,19ABBB구로구-0004,구로구-0004,37.48743033,126.8385274,구로구
837,V02Q1940057,19ADHH구로구-0024,구로구-0024,37.50526429,126.8451274,구로구
836,V02Q1940058,19ADIM동대문구-0017,동대문구-0017,37.57977525,127.0620252,동대문구
835,V02Q1940059,19ABBB강남구-0001,강남구-0001,37.48952988,127.0753463,강남구
834,V02Q1940060,19ABBB강남구-0003,강남구-0003,37.48339724,127.0862339,강남구
833,V02Q1940061,19ADII구로구-0025,구로구-0025,37.50527996,126.8746217,구로구
832,V02Q1940062,19ABBB강서구-0013,강서구-0013,37.54882399,126.8434758,강서구
831,V02Q1940063,19ABBB강남구-0020,강남구-0020,37.51606159,127.0618801,강남구
830,V02Q1940064,19ABBB성북구-0008,성북구-0008,37.61107942,127.0555166,성북구
829,V02Q1940065,19ABBB구로구-0010,구로구-0010,37.50568303,126.8586102,구로구
828,V02Q1940066,19ABBB강서구-0002,강서구-0002,37.56721931,126.8475165,강서구
827,V02Q1940067,19ABBB서초구-0001,서초구-0001,37.4543351,127.0618843,서초구
2,V02Q1940068,19ABBB서초구-0013,서초구-0013,37.4913371,126.9923309,서초구
826,V02Q1940069,19ABBB강서구-0012,강서구-0012,37.54980487,126.8702252,강서구
825,V02Q1940070,19ACEE구로구-0018,구로구-0018,37.48683268,126.8237121,구로구
824,V02Q1940071,19ABBB양천구-0017,양천구-0017,37.53623879,126.8242707,양천구
823,V02Q1940072,19ADIM강서구-0029,강서구-0029,37.55183644,126.8458607,강서구
822,V02Q1940073,19ACDD구로구-0017,구로구-0017,37.49382607,126.8840768,구로구
821,V02Q1940074,19ACCC영등포구-0019,영등포구-0019,37.52031382,126.8969952,영등포구
820,V02Q1940075,19ABBB노원구-0009,노원구-0009,37.66738408,127.0534565,노원구
819,V02Q1940076,19BCFF노원구-0026,노원구-0026,37.62202353,127.0774806,노원구
818,V02Q1940077,19ABBB영등포구-0004,영등포구-0004,37.49095208,126.8965606,영등포구
817,V02Q1940078,19ACDD강서구-0022,강서구-0022,37.54254621,126.8403227,강서구
816,V02Q1940079,19ABBB강남구-0004,강남구-0004,37.49410245,127.0822094,강남구
815,V02Q1940080,19ABBB강남구-0021,강남구-0021,37.51310182,127.0458183,강남구
814,V02Q1940081,19ABBB동대문구-0012,동대문구-0012,37.57132426,127.0510025,동대문구
813,V02Q1940082,19ADGG강남구-0031,강남구-0031,37.49550759,127.0857485,강남구
812,V02Q1940083,19ACCC구로구-0016,구로구-0016,37.49137096,126.8607797,구로구
811,V02Q1940084,19ABBB동대문구-0001,동대문구-0001,37.57837517,127.0624354,동대문구
810,V02Q1940085,19ABBB동대문구-0010,동대문구-0010,37.56833563,127.0658885,동대문구
809,V02Q1940086,19ABBB구로구-0009,구로구-0009,37.49775403,126.8633107,구로구
808,V02Q1940087,19ABBB성북구-0009,성북구-0009,37.61570454,127.0588487,성북구
807,V02Q1940088,19ADHO동대문구-0019,동대문구-0019,37.56782032,127.0525347,동대문구
806,V02Q1940089,19ABBB동대문구-0004,동대문구-0004,37.59192024,127.0546253,동대문구
805,V02Q1940090,19ADII구로구-0026,구로구-0026,37.49167186,126.8231311,구로구
804,V02Q1940091,19ABBB도봉구-0014,도봉구-0014,37.656045,127.0437189,도봉구
803,V02Q1940092,19ABBB동대문구-0013,동대문구-0013,37.57114055,127.0645218,동대문구
802,V02Q1940093,19ADGG강서구-0026,강서구-0026,37.57784085,126.818892,강서구
801,V02Q1940094,19ABBB강남구-0008,강남구-0008,37.46682943,127.1088929,강남구
800,V02Q1940095,19ABBB양천구-0003,양천구-0003,37.53291626,126.8683909,양천구
799,V02Q1940096,19ADHO동대문구-0020,동대문구-0020,37.56298757,127.0595872,동대문구
798,V02Q1940097,19ACEE동대문구-0016,동대문구-0016,37.58522784,127.0655327,동대문구
797,V02Q1940098,19ACDD강남구-0024,강남구-0024,37.48676489,127.1018579,강남구
796,V02Q1940099,19ABBB동대문구-0005,동대문구-0005,37.5905138,127.0569302,동대문구
795,V02Q1940100,19ADGG강남구-0030,강남구-0030,37.49497896,127.0931442,강남구
794,V02Q1940101,19ADHO동대문구-0018,동대문구-0018,37.57335724,127.0325399,동대문구
793,V02Q1940102,19ADIM강남구-0033,강남구-0033,37.48083459,127.0809688,강남구
792,V02Q1940103,19ADHH강서구-0027,강서구-0027,37.57904271,126.8184922,강서구
791,V02Q1940104,19ABBB강서구-0005,강서구-0005,37.55515562,126.858558,강서구
790,V02Q1940105,19ABBB강서구-0009,강서구-0009,37.57287575,126.8151904,강서구
789,V02Q1940106,19ABBB동대문구-0011,동대문구-0011,37.57758084,127.0471936,동대문구
788,V02Q1940107,19ACCC강북구-0014,강북구-0014,37.62077412,127.0123532,강북구
787,V02Q1940108,19ABBB동대문구-0009,동대문구-0009,37.60344403,127.0655316,동대문구
786,V02Q1940109,19ABBB동대문구-0006,동대문구-0006,37.59078005,127.0671123,동대문구
785,V02Q1940110,19ABBB영등포구-0016,영등포구-0016,37.51829065,126.9329653,영등포구
784,V02Q1940111,19ABBB구로구-0002,구로구-0002,37.50929949,126.8783801,구로구
783,V02Q1940112,19ABJB성동구-0028,성동구-0028,37.55650451,127.0711935,성동구
782,V02Q1940113,19ACCC강서구-0021,강서구-0021,37.55450397,126.8741754,강서구
781,V02Q1940114,19ABBB강서구-0001,강서구-0001,37.56929679,126.8427325,강서구
780,V02Q1940115,19ABBB동대문구-0008,동대문구-0008,37.59804281,127.0655573,동대문구
779,V02Q1940116,19ACDD동대문구-0021,동대문구-0021,37.57554443,127.023874,동대문구
778,V02Q1940117,19BCFF송파구-0032,송파구-0032,37.50853713,127.0871417,송파구
777,V02Q1940118,19ABBB동대문구-0002,동대문구-0002,37.58238909,127.0314924,동대문구
776,V02Q1940119,19ABBB동대문구-0014,동대문구-0014,37.57014257,127.072957,동대문구
775,V02Q1940120,19ACCC동대문구-0015,동대문구-0015,37.57946643,127.0724464,동대문구
774,V02Q1940121,19ABBB영등포구-0005,영등포구-0005,37.49694974,126.8977171,영등포구
773,V02Q1940122,19ABBB동대문구-0003,동대문구-0003,37.58571599,127.0479117,동대문구
772,V02Q1940123,19ABBB강남구-0006,강남구-0006,37.49489912,127.0618427,강남구
771,V02Q1940124,19ABBB강서구-0008,강서구-0008,37.55338226,126.8325758,강서구
770,V02Q1940125,19ABBB강서구-0010,강서구-0010,37.56267922,126.8086245,강서구
769,V02Q1940126,19ABBB강서구-0011,강서구-0011,37.57836214,126.8159088,강서구
768,V02Q1940127,19ABBB영등포구-0002,영등포구-0002,37.53620112,126.9012217,영등포구
767,V02Q1940128,19ABBB노원구-0006,노원구-0006,37.67410962,127.0818401,노원구
766,V02Q1940129,19ABBB강남구-0005,강남구-0005,37.49765571,127.0743987,강남구
765,V02Q1940130,19ABBB강서구-0003,강서구-0003,37.56124878,126.8596643,강서구
764,V02Q1940131,19ABBB성북구-0001,성북구-0001,37.59448521,127.0211958,성북구
763,V02Q1940132,19ABBB노원구-0018,노원구-0018,37.64010401,127.0729861,노원구
762,V02Q1940133,19ABBB영등포구-0015,영등포구-0015,37.53685591,126.8948496,영등포구
761,V02Q1940134,19ABBB광진구-0015,광진구-0015,37.55579789,127.0758197,광진구
760,V02Q1940135,19ADGG도봉구-0020,도봉구-0020,37.69099122,127.0423735,도봉구
759,V02Q1940136,19BCFF구로구-0019,구로구-0019,37.48946749,126.8848394,구로구
758,V02Q1940137,19ABBB강북구-0013,강북구-0013,37.62731949,127.0271506,강북구
757,V02Q1940138,19ADHL서대문구-0019,서대문구-0019,37.55763712,126.9392536,서대문구
756,V02Q1940139,19ACCC은평구-0017,은평구-0017,37.64376606,126.9245654,은평구
755,V02Q1940140,19BCFF구로구-0022,구로구-0022,37.50248471,126.8510405,구로구
754,V02Q1940141,19ABBB서초구-0005,서초구-0005,37.49760629,127.0013841,서초구
753,V02Q1940142,19BCFF강동구-0024,강동구-0024,37.55054502,127.1278725,강동구
752,V02Q1940143,19ABBB성북구-0006,성북구-0006,37.60585332,127.0497384,성북구
751,V02Q1940144,19ABBB서초구-0010,서초구-0010,37.48255634,126.9946044,서초구
750,V02Q1940145,19ABBB강남구-0014,강남구-0014,37.51402419,127.0216812,강남구
749,V02Q1940146,19ABBB노원구-0007,노원구-0007,37.66254305,127.0693112,노원구
748,V02Q1940147,19ABBB성북구-0015,성북구-0015,37.61308658,127.0617154,성북구
747,V02Q1940148,19ABBB서초구-0006,서초구-0006,37.4999898,126.987037,서초구
746,V02Q1940149,19ABBB강남구-0013,강남구-0013,37.48506055,127.044068,강남구
745,V02Q1940150,19ADGG노원구-0027,노원구-0027,37.6441667,127.0606867,노원구
744,V02Q1940151,19ADHJ노원구-0031,노원구-0031,37.67916022,127.0520828,노원구
743,V02Q1940152,19ABBB강남구-0011,강남구-0011,37.50653959,127.0457279,강남구
742,V02Q1940153,19ADIM노원구-0030,노원구-0030,37.67980645,127.0630595,노원구
741,V02Q1940154,19ABBB노원구-0015,노원구-0015,37.64215881,127.0698698,노원구
740,V02Q1940155,19ABBB노원구-0012,노원구-0012,37.60595357,127.094129,노원구
739,V02Q1940156,19ABBB성동구-0004,성동구-0004,37.56667486,127.0455215,성동구
738,V02Q1940157,19ABBB노원구-0019,노원구-0019,37.63164114,127.0674542,노원구
737,V02Q1940158,19ACCC서초구-0019,서초구-0019,37.50280638,126.9904971,서초구
736,V02Q1940159,19ABBB중랑구-0016,중랑구-0016,37.59769087,127.0728232,중랑구
735,V02Q1940160,19ABBB강북구-0002,강북구-0002,37.64791875,127.0124561,강북구
734,V02Q1940161,19ABBB강남구-0010,강남구-0010,37.52634275,127.0374614,강남구
733,V02Q1940162,19ABBB강서구-0015,강서구-0015,37.53059931,126.8405692,강서구
732,V02Q1940163,19ABBB강서구-0004,강서구-0004,37.55938828,126.8098556,강서구
731,V02Q1940164,19BCFF강남구-0029,강남구-0029,37.48858687,127.0679878,강남구
730,V02Q1940165,19ABBB구로구-0003,구로구-0003,37.49689198,126.8437271,구로구
729,V02Q1940166,19ABBB강서구-0007,강서구-0007,37.55785223,126.849018,강서구
728,V02Q1940167,19ABBB강서구-0017,강서구-0017,37.54481973,126.8358435,강서구
727,V02Q1940168,19ABBB영등포구-0007,영등포구-0007,37.51493903,126.8969879,영등포구
726,V02Q1940169,19ABBB영등포구-0003,영등포구-0003,37.4965129,126.906686,영등포구
725,V02Q1940170,19ADHO영등포구-0027,영등포구-0027,37.52173841,126.8966833,영등포구
724,V02Q1940171,19ABBB영등포구-0001,영등포구-0001,37.52413002,126.8986049,영등포구
723,V02Q1940172,19ADIM중랑구-0021,중랑구-0021,37.5740326,127.0893262,중랑구
722,V02Q1940173,19ABBB강서구-0018,강서구-0018,37.53400973,126.8610668,강서구
721,V02Q1940174,19ABBB영등포구-0014,영등포구-0014,37.52416526,126.8870815,영등포구
720,V02Q1940175,19ABBB강남구-0012,강남구-0012,37.52778814,127.0467992,강남구
719,V02Q1940176,19ABBB영등포구-0013,영등포구-0013,37.50618001,126.9214383,영등포구
718,V02Q1940177,19ABBB강남구-0022,강남구-0022,37.50227825,127.0539647,강남구
717,V02Q1940178,19ABBB강남구-0009,강남구-0009,37.52105313,127.0194561,강남구
716,V02Q1940179,19ABBB강서구-0014,강서구-0014,37.54386703,126.8476199,강서구
715,V02Q1940180,19ABBB강서구-0006,강서구-0006,37.53803771,126.8628336,강서구
714,V02Q1940181,19ADHH강서구-0028,강서구-0028,37.52757708,126.843082,강서구
713,V02Q1940182,19ABBB강서구-0016,강서구-0016,37.53237894,126.8553371,강서구
712,V02Q1940183,19ABBB노원구-0017,노원구-0017,37.64774288,127.0811226,노원구
711,V02Q1940184,19ABBB영등포구-0018,영등포구-0018,37.51419781,126.909457,영등포구
710,V02Q1940185,19ABBB영등포구-0006,영등포구-0006,37.50965994,126.8961724,영등포구
709,V02Q1940186,19ABBB영등포구-0010,영등포구-0010,37.50914671,126.9109582,영등포구
708,V02Q1940187,19ABBB강서구-0019,강서구-0019,37.55295757,126.85136,강서구
707,V02Q1940188,19ABBB영등포구-0011,영등포구-0011,37.50213873,126.9051679,영등포구
706,V02Q1940189,19ACEE강서구-0023,강서구-0023,37.54175046,126.8515917,강서구
705,V02Q1940190,19ADHJ동작구-0025,동작구-0025,37.49653097,126.9824168,동작구
704,V02Q1940191,19ABBB중랑구-0005,중랑구-0005,37.58540801,127.0790205,중랑구
703,V02Q1940192,19ACEE강남구-0025,강남구-0025,37.52224273,127.0534516,강남구
702,V02Q1940193,19ABBB강서구-0020,강서구-0020,37.5311064,126.8499429,강서구
701,V02Q1940194,19ABBB동작구-0004,동작구-0004,37.48280186,126.9795311,동작구
700,V02Q1940195,19ABBB중랑구-0006,중랑구-0006,37.57867312,127.0863244,중랑구
699,V02Q1940196,19ABBB영등포구-0008,영등포구-0008,37.50989238,126.9205341,영등포구
698,V02Q1940197,19ABBB영등포구-0009,영등포구-0009,37.50705874,126.9070917,영등포구
697,V02Q1940198,19ABBB영등포구-0012,영등포구-0012,37.50001275,126.9108075,영등포구
696,V02Q1940199,19ABBB영등포구-0017,영등포구-0017,37.52030939,126.9104414,영등포구
695,V02Q1940200,19ABBB광진구-0003,광진구-0003,37.56850197,127.0801045,광진구
694,V02Q1940201,19ADIM서초구-0025,서초구-0025,37.4832649,127.0130872,서초구
693,V02Q1940202,19ABBB광진구-0001,광진구-0001,37.56011938,127.0795379,광진구
692,V02Q1940203,19ABBB도봉구-0004,도봉구-0004,37.66932206,127.0323156,도봉구
691,V02Q1940204,19ABBB광진구-0014,광진구-0014,37.54669635,127.0720365,광진구
690,V02Q1940205,19ABBB도봉구-0007,도봉구-0007,37.65946582,127.0379952,도봉구
689,V02Q1940206,19ABBB성북구-0005,성북구-0005,37.609442,127.0341014,성북구
688,V02Q1940207,19ABBB강북구-0004,강북구-0004,37.61707714,127.0152725,강북구
687,V02Q1940208,19ABBB은평구-0006,은평구-0006,37.61059826,126.9313528,은평구
686,V02Q1940209,19ABBB광진구-0004,광진구-0004,37.55902487,127.0901207,광진구
685,V02Q1940210,19ABBB노원구-0016,노원구-0016,37.66088375,127.0788592,노원구
684,V02Q1940215,19ACCC노원구-0020,노원구-0020,37.6269977,127.0791231,노원구
683,V02Q1940216,19ABBB노원구-0008,노원구-0008,37.65197881,127.0640439,노원구
682,V02Q1940217,19ADHH영등포구-0023,영등포구-0023,37.51352713,126.9259171,영등포구
681,V02Q1940218,19ABBB중랑구-0008,중랑구-0008,37.60984943,127.076301,중랑구
680,V02Q1940219,19ADII영등포구-0025,영등포구-0025,37.51165157,126.8957295,영등포구
679,V02Q1940220,19BCFF금천구-0019,금천구-0019,37.44953803,126.9147027,금천구
678,V02Q1940221,19ACDD영등포구-0020,영등포구-0020,37.51891213,126.9077054,영등포구
677,V02Q1940222,19ADHO영등포구-0028,영등포구-0028,37.51828647,126.9105648,영등포구
676,V02Q1940223,19ACEE영등포구-0021,영등포구-0021,37.51804607,126.893018,영등포구
675,V02Q1940224,19ADHJ강남구-0032,강남구-0032,37.498641,127.0363378,강남구
674,V02Q1940225,19ABBB중랑구-0007,중랑구-0007,37.58597736,127.0883832,중랑구
673,V02Q1940226,19ACDD노원구-0021,노원구-0021,37.61544877,127.0646091,노원구
672,V02Q1940231,19ACDD중랑구-0022,중랑구-0022,37.59267959,127.0747779,중랑구
671,V02Q1940232,19ABBB종로구-0010,종로구-0010,37.58503293,126.9818759,종로구
670,V02Q1940233,19ABBB중랑구-0015,중랑구-0015,37.61355404,127.0814964,중랑구
669,V02Q1940234,19ABBB노원구-0005,노원구-0005,37.65816471,127.0684542,노원구
668,V02Q1940235,19ACCC중랑구-0017,중랑구-0017,37.61254656,127.0734148,중랑구
667,V02Q1940236,19ABBB강남구-0019,강남구-0019,37.4881537,127.0394136,강남구
666,V02Q1940237,19ABBB중랑구-0011,중랑구-0011,37.60508772,127.0997189,중랑구
665,V02Q1940238,19ABBB노원구-0010,노원구-0010,37.66475398,127.0633657,노원구
664,V02Q1940239,19ACCC강남구-0023,강남구-0023,37.49344719,127.0569613,강남구
663,V02Q1940240,19ABBB양천구-0010,양천구-0010,37.53206064,126.8317217,양천구
662,V02Q1940241,19ABBB중랑구-0009,중랑구-0009,37.59998915,127.0870729,중랑구
661,V02Q1940242,19ABBB도봉구-0012,도봉구-0012,37.63944037,127.0425843,도봉구
660,V02Q1940243,19ABBB중랑구-0010,중랑구-0010,37.59335302,127.0809757,중랑구
659,V02Q1940244,19ADHH영등포구-0022,영등포구-0022,37.53272746,126.8933322,영등포구
658,V02Q1940245,19ADHH노원구-0029,노원구-0029,37.6737242,127.0505972,노원구
657,V02Q1940246,19ABBB강남구-0007,강남구-0007,37.49937086,127.0727253,강남구
656,V02Q1940247,19BCFF금천구-0017,금천구-0017,37.46756391,126.9081023,금천구
655,V02Q1940248,19ABBB중랑구-0002,중랑구-0002,37.60115106,127.1007979,중랑구
654,V02Q1940249,19ABBB서초구-0012,서초구-0012,37.48095824,127.0003298,서초구
653,V02Q1940250,19ABBB중랑구-0003,중랑구-0003,37.589051,127.0808924,중랑구
652,V02Q1940251,19ADHO영등포구-0026,영등포구-0026,37.52266609,126.8829153,영등포구
651,V02Q1940252,19ABBB중랑구-0004,중랑구-0004,37.57581922,127.0861478,중랑구
650,V02Q1940253,19ACEE강북구-0016,강북구-0016,37.65390832,127.0112019,강북구
649,V02Q1940254,19ABBB중랑구-0012,중랑구-0012,37.63240065,127.0509471,중랑구
648,V02Q1940255,19ACEE중랑구-0018,중랑구-0018,37.58276656,127.086701,중랑구
647,V02Q1940256,19ADHH영등포구-0024,영등포구-0024,37.54368812,126.8877377,영등포구
646,V02Q1940257,19ADGG노원구-0028,노원구-0028,37.6395639,127.0605673,노원구
645,V02Q1940258,19ABJB성동구-0043,성동구-0043,37.562998,127.0284354,성동구
644,V02Q1940259,19ABJB양천구-0036,양천구-0036,37.5339278,126.8637928,양천구
643,V02Q1940260,19ACEE관약구-0024,관약구-0024,37.46485258,126.9398992,관악구
642,V02Q1940261,19ABJB성동구-0026,성동구-0026,37.54980884,127.0497702,성동구
641,V02Q1940262,19ABBB관악구-0007,관악구-0007,37.48342803,126.9494608,관악구
640,V02Q1940263,19ABJB성동구-0050,성동구-0050,37.56087438,127.0627473,성동구
639,V02Q1940264,19ABBB도봉구-0002,도봉구-0002,37.67118144,127.0451551,도봉구
638,V02Q1940265,19ABBB도봉구-0011,도봉구-0011,37.64068531,127.0354737,도봉구
637,V02Q1940266,19ABBB노원구-0001,노원구-0001,37.62510077,127.0734884,노원구
636,V02Q1940267,19ABBB노원구-0014,노원구-0014,37.65264925,127.0782396,노원구
635,V02Q1940268,19ABBB서초구-0002,서초구-0002,37.50661107,126.9924396,서초구
634,V02Q1940269,19ABJB관악구-0052,관악구-0052,37.47174062,126.9331557,관악구
633,V02Q1940270,19ABJB성동구-0041,성동구-0041,37.54728698,127.0467402,성동구
632,V02Q1940271,19ADHH강동구-0026,강동구-0026,37.56477838,127.1780401,강동구
631,V02Q1940272,19ABBB관악구-0009,관악구-0009,37.47883954,126.9612446,관악구
630,V02Q1940273,19ABBB강남구-0018,강남구-0018,37.51751212,127.0371336,강남구
629,V02Q1940274,19ABBB서초구-0003,서초구-0003,37.50540849,127.0135006,서초구
628,V02Q1940275,19ABBB노원구-0004,노원구-0004,37.68242403,127.0526781,노원구
627,V02Q1940276,19ABBB성북구-0004,성북구-0004,37.58553822,127.0235089,성북구
626,V02Q1940277,19ABBB중랑구-0001,중랑구-0001,37.59114395,127.0942268,중랑구
625,V02Q1940278,19ABBB동작구-0001,동작구-0001,37.5124009,126.9425468,동작구
624,V02Q1940280,19ABBB광진구-0002,광진구-0002,37.56197559,127.0850326,광진구
623,V02Q1940281,19ABBB노원구-0003,노원구-0003,37.66109165,127.0590435,노원구
622,V02Q1940282,19ABBB서초구-0004,서초구-0004,37.5124908,127.0058762,서초구
621,V02Q1940283,19ABBB성북구-0002,성북구-0002,37.58060195,127.0230302,성북구
620,V02Q1940284,19ABBB성북구-0003,성북구-0003,37.58968413,127.0129202,성북구
619,V02Q1940285,19ABJB마포구-0027,마포구-0027,37.55472248,126.9103629,마포구
618,V02Q1940286,19ABJB성동구-0061,성동구-0061,37.56216619,127.0266823,성동구
617,V02Q1940287,19ABJB양천구-0047,양천구-0047,37.53139333,126.8300752,양천구
616,V02Q1940288,19ABJB마포구-0045,마포구-0045,37.54395677,126.9341213,마포구
615,V02Q1940289,19ABBB동작구-0006,동작구-0006,37.48749956,126.9682384,동작구
614,V02Q1940290,19ABBB노원구-0011,노원구-0011,37.62054243,127.0624632,노원구
613,V02Q1940291,19ABBB노원구-0013,노원구-0013,37.62131475,127.0695087,노원구
612,V02Q1940292,19ADHJ동작구-0026,동작구-0026,37.49084809,126.9819441,동작구
611,V02Q1940293,19ABBB강남구-0002,강남구-0002,37.47640069,127.0484893,강남구
610,V02Q1940294,19ABBB광진구-0007,광진구-0007,37.54816059,127.0896827,광진구
609,V02Q1940295,19ABBB동작구-0003,동작구-0003,37.50871275,126.9251675,동작구
608,V02Q1940296,19ADHH동작구-0024,동작구-0024,37.51196987,126.9263022,동작구
607,V02Q1940297,19ABBB동작구-0005,동작구-0005,37.49295621,126.9757603,동작구
606,V02Q1940298,19ACEE노원구-0022,노원구-0022,37.67452443,127.0615699,노원구
605,V02Q1940299,19ABBB노원구-0002,노원구-0002,37.62112754,127.083296,노원구
604,V02Q1940300,19ABBB강북구-0011,강북구-0011,37.64378512,127.0194517,강북구
603,V02Q1940301,19BCFF동작구-0023,동작구-0023,37.48911821,126.9805704,동작구
602,V02Q1940302,19ADHK중구-0026,중구-0026,37.5595092,126.9718932,중구
601,V02Q1940303,19ACEE도봉구-0017,도봉구-0017,37.68923181,127.0467349,도봉구
600,V02Q1940304,19ABBB동작구-0009,동작구-0009,37.50407253,126.9518255,동작구
599,V02Q1940305,19ABBB광진구-0005,광진구-0005,37.55314962,127.0805438,광진구
598,V02Q1940306,19ABBB강동구-0011,강동구-0011,37.54244851,127.1257054,강동구
597,V02Q1940307,19ABBB중랑구-0014,중랑구-0014,37.58537699,127.0954532,중랑구
596,V02Q1940308,19ABBB서초구-0014,서초구-0014,37.49412567,126.9868537,서초구
595,V02Q1940309,19ABBB강남구-0016,강남구-0016,37.49373877,127.0423742,강남구
594,V02Q1940310,19ABBB서초구-0011,서초구-0011,37.47984859,126.9854018,서초구
593,V02Q1940311,19ABBB중랑구-0013,중랑구-0013,37.60067531,127.0819374,중랑구
592,V02Q1940312,19ABBB양천구-0008,양천구-0008,37.52282125,126.8584353,양천구
591,V02Q1940313,19ABBB강남구-0015,강남구-0015,37.48553586,127.0874273,강남구
590,V02Q1940314,19ABBB강북구-0003,강북구-0003,37.61856124,127.0228038,강북구
589,V02Q1940315,19ABBB강남구-0017,강남구-0017,37.48391615,127.0575965,강남구
588,V02Q1940316,19ABBB동작구-0010,동작구-0010,37.50479368,126.9407833,동작구
587,V02Q1940317,19ABBB은평구-0004,은평구-0004,37.60263144,126.930629,은평구
586,V02Q1940318,19ABBB동작구-0002,동작구-0002,37.50809775,126.9375878,동작구
585,V02Q1940319,19ABBB동작구-0012,동작구-0012,37.50119264,126.9369607,동작구
584,V02Q1940320,19ABBB도봉구-0006,도봉구-0006,37.64976759,127.0198914,도봉구
583,V02Q1940321,19ABBB강동구-0003,강동구-0003,37.54946832,127.1463394,강동구
582,V02Q1940322,19ABBB성북구-0014,성북구-0014,37.59917241,127.0360274,성북구
581,V02Q1940323,19ABBB도봉구-0010,도봉구-0010,37.64925173,127.0461124,도봉구
580,V02Q1940324,19ABBB도봉구-0009,도봉구-0009,37.65153612,127.0306318,도봉구
579,V02Q1940325,19ADIM도봉구-0022,도봉구-0022,37.68923847,127.0418795,도봉구
578,V02Q1940326,19ABBB은평구-0005,은평구-0005,37.61408672,126.919837,은평구
577,V02Q1940327,19ABBB광진구-0006,광진구-0006,37.54225653,127.0851136,광진구
576,V02Q1940328,19ABBB성북구-0019,성북구-0019,37.6033482,127.0293756,성북구
575,V02Q1940329,19ABBB도봉구-0001,도봉구-0001,37.68050607,127.0445926,도봉구
574,V02Q1940330,19ABBB강북구-0001,강북구-0001,37.62778821,127.0193507,강북구
573,V02Q1940331,19ACCC도봉구-0015,도봉구-0015,37.65050658,127.0334227,도봉구
572,V02Q1940332,19ABBB은평구-0008,은평구-0008,37.59765044,126.9120209,은평구
571,V02Q1940333,19ABBB은평구-0007,은평구-0007,37.6260814,126.9277105,은평구
570,V02Q1940334,19ABBB도봉구-0003,도봉구-0003,37.66563906,127.0400687,도봉구
569,V02Q1940335,19ACEE성북구-0023,성북구-0023,37.60774203,127.0413403,성북구
568,V02Q1940336,19ABBB은평구-0003,은평구-0003,37.61179964,126.909853,은평구
567,V02Q1940337,19ABBB은평구-0016,은평구-0016,37.59890825,126.9203089,은평구
566,V02Q1940338,19ABBB도봉구-0005,도봉구-0005,37.66090623,127.0234002,도봉구
565,V02Q1940339,19ABBB은평구-0001,은평구-0001,37.62346645,126.9169061,은평구
564,V02Q1940340,19ACDD강북구-0015,강북구-0015,37.6255552,127.027215,강북구
563,V02Q1940341,19ABBB은평구-0009,은평구-0009,37.60413569,126.9147653,은평구
562,V02Q1940342,19ABBB도봉구-0008,도봉구-0008,37.64807136,127.0290801,도봉구
561,V02Q1940343,19ABBB은평구-0002,은평구-0002,37.6187081,126.9165915,은평구
560,V02Q1940344,19ABBB성북구-0018,성북구-0018,37.60580033,127.0255563,성북구
559,V02Q1940345,19ACDD도봉구-0016,도봉구-0016,37.64917094,127.0352845,도봉구
558,V02Q1940346,19BCFF강서구-0024,강서구-0024,37.53438349,126.8379965,강서구
557,V02Q1940347,19ABBB은평구-0012,은평구-0012,37.58442752,126.9052244,은평구
556,V02Q1940348,19ADHH서초구-0022,서초구-0022,37.46022502,127.0172225,서초구
555,V02Q1940349,19ABBB강동구-0012,강동구-0012,37.53976817,127.129658,강동구
554,V02Q1940350,19ACEE강동구-0021,강동구-0021,37.55481129,127.1501862,강동구
553,V02Q1940351,19ABBB성북구-0016,성북구-0016,37.59105394,127.0030069,성북구
552,V02Q1940352,19ABBB강동구-0002,강동구-0002,37.55362615,127.168193,강동구
551,V02Q1940353,19ABBB강동구-0004,강동구-0004,37.54651241,127.1525938,강동구
550,V02Q1940354,19ACDD강동구-0020,강동구-0020,37.5347172,127.1299797,강동구
549,V02Q1940355,19ABBB강동구-0006,강동구-0006,37.56074258,127.1642891,강동구
548,V02Q1940356,19ABBB동작구-0015,동작구-0015,37.50454947,126.9674184,동작구
547,V02Q1940357,19ACCC동작구-0016,동작구-0016,37.50376595,126.9609584,동작구
546,V02Q1940358,19ABBB은평구-0013,은평구-0013,37.63898356,126.9188614,은평구
545,V02Q1940359,19ACCC강동구-0019,강동구-0019,37.54651703,127.14731,강동구
544,V02Q1940360,19ABBB강동구-0005,강동구-0005,37.5568473,127.151357,강동구
543,V02Q1940361,19ABBB성북구-0020,성북구-0020,37.59797947,127.0107858,성북구
542,V02Q1940362,19ACDD성북구-0022,성북구-0022,37.60337797,127.0241721,성북구
541,V02Q1940363,19ABBB서대문구-0008,서대문구-0008,37.58137532,126.9343273,서대문구
540,V02Q1940364,19ABBB양천구-0009,양천구-0009,37.5166462,126.8628645,양천구
539,V02Q1940367,19ABJB성동구-0039,성동구-0039,37.55439478,127.0200998,성동구
538,V02Q1940368,19ABBB서초구-0007,서초구-0007,37.48326071,127.0349794,서초구
537,V02Q1940369,19ABBB금천구-0004,금천구-0004,37.47432254,126.9024197,금천구
536,V02Q1940370,19ACEE은평구-0019,은평구-0019,37.61961313,126.9321312,은평구
535,V02Q1940371,19ABBB광진구-0009,광진구-0009,37.54667759,127.1034537,광진구
534,V02Q1940372,19ADHH강동구-0025,강동구-0025,37.55406687,127.1278126,강동구
533,V02Q1940373,19ABBB은평구-0011,은평구-0011,37.58993857,126.9172919,은평구
532,V02Q1940374,19ADHO금천구-0014,금천구-0014,37.46431817,126.8972355,금천구
531,V02Q1940375,19ACDD동작구-0017,동작구-0017,37.49171276,126.9248262,동작구
530,V02Q1940376,19ABBB강동구-0010,강동구-0010,37.54530451,127.136675,강동구
529,V02Q1940377,19ABBB은평구-0010,은평구-0010,37.59483691,126.9245487,은평구
528,V02Q1940378,19ABBB강북구-0010,강북구-0010,37.63115555,127.016796,강북구
527,V02Q1940379,19ABBB성북구-0007,성북구-0007,37.61420241,127.0436659,성북구
526,V02Q1940380,19ABBB서초구-0008,서초구-0008,37.47160463,127.0409436,서초구
525,V02Q1940381,19ABBB성북구-0010,성북구-0010,37.60160929,127.016721,성북구
524,V02Q1940382,19ABBB동작구-0007,동작구-0007,37.48206626,126.969679,동작구
523,V02Q1940383,19ABBB광진구-0013,광진구-0013,37.53328566,127.0656475,광진구
522,V02Q1940384,19ACEE동작구-0018,동작구-0018,37.48591285,126.975187,동작구
521,V02Q1940385,19ABBB서대문구-0003,서대문구-0003,37.57780973,126.9052856,서대문구
520,V02Q1940386,19ABBB강북구-0008,강북구-0008,37.61589809,127.0341603,강북구
519,V02Q1940387,19ACDD광진구-0017,광진구-0017,37.54005404,127.0709793,광진구
518,V02Q1940388,19ABBB성북구-0011,성북구-0011,37.6040284,127.009922,성북구
517,V02Q1940389,19ABBB동작구-0014,동작구-0014,37.49774248,126.9238296,동작구
516,V02Q1940390,19ADHH도봉구-0021,도봉구-0021,37.65472878,127.047743,도봉구
515,V02Q1940391,19ABBB광진구-0011,광진구-0011,37.5286168,127.0851212,광진구
514,V02Q1940392,19ABBB광진구-0008,광진구-0008,37.53828664,127.0923968,광진구
513,V02Q1940393,19ABBB광진구-0012,광진구-0012,37.53348826,127.0730061,광진구
512,V02Q1940394,19ABBB강북구-0006,강북구-0006,37.63213319,127.0380993,강북구
511,V02Q1940395,19ABBB양천구-0018,양천구-0018,37.5389107,126.829309,양천구
510,V02Q1940396,19ADHH서초구-0023,서초구-0023,37.48874836,127.0067934,서초구
509,V02Q1940397,19ABBB동작구-0008,동작구-0008,37.48773341,126.9646505,동작구
508,V02Q1940398,19ACEE서초구-0021,서초구-0021,37.46737119,127.0347894,서초구
507,V02Q1940399,19ABBB서초구-0017,서초구-0017,37.49139149,127.0127403,서초구
506,V02Q1940400,19ABBB서초구-0015,서초구-0015,37.48927413,127.0178868,서초구
505,V02Q1940401,19ABBB성북구-0013,성북구-0013,37.61320381,127.0074603,성북구
504,V02Q1940402,19ABBB서초구-0016,서초구-0016,37.49130895,127.0268046,서초구
503,V02Q1940403,19ABBB광진구-0010,광진구-0010,37.53430907,127.0819856,광진구
502,V02Q1940404,19ABBB도봉구-0013,도봉구-0013,37.65320724,127.0523294,도봉구
501,V02Q1940405,19ADII금천구-0023,금천구-0023,37.46857802,126.8925761,금천구
500,V02Q1940406,19ABBB성북구-0012,성북구-0012,37.60939292,127.004355,성북구
499,V02Q1940407,19ACCC금천구-0011,금천구-0011,37.45844386,126.8950891,금천구
498,V02Q1940408,19ABBB강동구-0008,강동구-0008,37.55738865,127.1300576,강동구
497,V02Q1940409,19ABBB강북구-0012,강북구-0012,37.63809491,127.0237698,강북구
496,V02Q1940410,19ABBB강동구-0018,강동구-0018,37.53321895,127.1417954,강동구
495,V02Q1940411,19ACCC광진구-0016,광진구-0016,37.53387824,127.091521,광진구
494,V02Q1940412,19ABBB서대문구-0007,서대문구-0007,37.6002927,126.945827,서대문구
493,V02Q1940413,19ABBB양천구-0011,양천구-0011,37.5246553,126.8444487,양천구
492,V02Q1940414,19ABBB강북구-0007,강북구-0007,37.62596558,127.0461778,강북구
491,V02Q1940415,19ACCC성북구-0021,성북구-0021,37.60394387,127.0357469,성북구
490,V02Q1940416,19ACEE광진구-0018,광진구-0018,37.54776822,127.0863736,광진구
489,V02Q1940417,19ABBB강동구-0015,강동구-0015,37.52595923,127.1324933,강동구
488,V02Q1940418,19ABBB성북구-0017,성북구-0017,37.60987793,127.0175342,성북구
487,V02Q1940419,19ADIM성북구-0024,성북구-0024,37.59570201,127.0241817,성북구
486,V02Q1940420,19ABBB동작구-0011,동작구-0011,37.49921389,126.9312596,동작구
485,V02Q1940421,19ABBB강동구-0001,강동구-0001,37.5630601,127.1784268,강동구
484,V02Q1940422,19ABBB서대문구-0013,서대문구-0013,37.56757695,126.9464658,서대문구
483,V02Q1940423,19ACDD서초구-0020,서초구-0020,37.47660064,126.9826391,서초구
482,V02Q1940424,19ACCC양천구-0019,양천구-0019,37.5101986,126.8589874,양천구
481,V02Q1940425,19ABBB관악구-0001,관악구-0001,37.486421,126.9330533,관악구
480,V02Q1940426,19ABBB마포구-0007,마포구-0007,37.56802912,126.9073195,마포구
479,V02Q1940427,19ABBB서초구-0018,서초구-0018,37.49974349,127.0168013,서초구
478,V02Q1940428,19ABBB금천구-0001,금천구-0001,37.47580636,126.8929078,금천구
477,V02Q1940429,19ABBB강북구-0009,강북구-0009,37.64201094,127.0110328,강북구
476,V02Q1940430,19ABBB강동구-0014,강동구-0014,37.5358158,127.1246859,강동구
475,V02Q1940431,19ABBB강북구-0005,강북구-0005,37.63638945,127.0339636,강북구
474,V02Q1940432,19ABBB동작구-0013,동작구-0013,37.48657654,126.9100534,동작구
473,V02Q1940433,19ADHJ서초구-0024,서초구-0024,37.49145971,127.0101664,서초구
472,V02Q1940434,19ADIM강동구-0027,강동구-0027,37.53219906,127.1480905,강동구
471,V02Q1940435,19ABBB은평구-0014,은평구-0014,37.58351322,126.8942569,은평구
470,V02Q1940436,19ABBB중구-0003,중구-0003,37.56057566,126.9796444,중구
469,V02Q1940437,19ABBB강동구-0009,강동구-0009,37.55459762,127.1398279,강동구
468,V02Q1940438,19ADHK중구-0027,중구-0027,37.56239638,126.9705198,중구
467,V02Q1940439,19ABJB마포구-0030,마포구-0030,37.55989095,126.9174751,마포구
466,V02Q1940440,19ABBB관악구-0003,관악구-0003,37.48169168,126.927561,관악구
465,V02Q1940441,19ABJB성동구-0036,성동구-0036,37.55837233,127.0376945,성동구
464,V02Q1940442,19ABJB마포구-0048,마포구-0048,37.55753805,126.9029616,마포구
463,V02Q1940443,19ABJB양천구-0031,양천구-0031,37.52068417,126.8738043,양천구
462,V02Q1940444,19ABBB관악구-0015,관악구-0015,37.4886003,126.9326409,관악구
461,V02Q1940445,19ABBB관악구-0018,관악구-0018,37.48039207,126.9323552,관악구
460,V02Q1940446,19ACDD관약구-0023,관약구-0023,37.48043211,126.9532678,관악구
459,V02Q1940447,19ABJB양천구-0050,양천구-0050,37.52427347,126.8314064,양천구
458,V02Q1940448,19BCFF강북구-0019,강북구-0019,37.63075938,127.0235503,강북구
457,V02Q1940449,19BCFF마포구-0023,마포구-0023,37.55579118,126.9059871,마포구
456,V02Q1940450,19ABJB마포구-0061,마포구-0061,37.56548077,126.9177741,마포구
455,V02Q1940451,19ABJB마포구-0029,마포구-0029,37.56349354,126.9061479,마포구
454,V02Q1940452,19ABBB관악구-0008,관악구-0008,37.47889253,126.9444627,관악구
453,V02Q1940453,19ABBB양천구-0012,양천구-0012,37.53263479,126.8714464,양천구
452,V02Q1940454,19ADII성동구-0023,성동구-0023,37.56101387,127.0590525,성동구
451,V02Q1940455,19ADGG양천구-0029,양천구-0029,37.54277585,126.881433,양천구
450,V02Q1940456,19ABBB마포구-0012,마포구-0012,37.54310205,126.9426921,마포구
449,V02Q1940457,19ADHH관약구-0027,관약구-0027,37.47319485,126.931912,관악구
448,V02Q1940458,19ABBB관악구-0010,관악구-0010,37.47642155,126.9577757,관악구
447,V02Q1940459,19ABJB마포구-0059,마포구-0059,37.56451061,126.9116219,마포구
446,V02Q1940460,19ABJB성동구-0038,성동구-0038,37.54888424,127.0425475,성동구
445,V02Q1940461,19ABJB마포구-0041,마포구-0041,37.54354866,126.9300676,마포구
444,V02Q1940462,19ADII관약구-0028,관약구-0028,37.48937978,126.9223696,관악구
443,V02Q1940463,19ABBB서대문구-0004,서대문구-0004,37.57993688,126.9075224,서대문구
442,V02Q1940464,19ABJB양천구-0051,양천구-0051,37.52032974,126.835739,양천구
441,V02Q1940465,19ABBB관악구-0021,관악구-0021,37.46851957,126.9400472,관악구
440,V02Q1940466,19ABJB마포구-0033,마포구-0033,37.56339663,126.9270326,마포구
439,V02Q1940467,19ABBB마포구-0006,마포구-0006,37.56348852,126.9091021,마포구
438,V02Q1940468,19ACCC관약구-0022,관약구-0022,37.48432967,126.9594576,관악구
437,V02Q1940469,19ABJB양천구-0052,양천구-0052,37.51062672,126.8433947,양천구
436,V02Q1940470,19ABBB서대문구-0005,서대문구-0005,37.57800993,126.9350323,서대문구
435,V02Q1940471,19ABJB마포구-0028,마포구-0028,37.56108668,126.8988012,마포구
434,V02Q1940472,19ABBB양천구-0013,양천구-0013,37.51450508,126.8414257,양천구
433,V02Q1940473,19ABBB성동구-0001,성동구-0001,37.55680966,127.0199202,성동구
432,V02Q1940474,19ABBB금천구-0002,금천구-0002,37.46879478,126.8937982,금천구
431,V02Q1940475,19ADIM은평구-0020,은평구-0020,37.61398913,126.9065555,은평구
430,V02Q1940476,19ABBB은평구-0015,은평구-0015,37.59234803,126.9065632,은평구
429,V02Q1940477,19ABBB강북구-0021,강북구-0021,37.6620208,127.0110858,강북구
428,V02Q1940478,19ABBB강동구-0016,강동구-0016,37.53956346,127.1459335,강동구
427,V02Q1940479,19ACEE금천구-0013,금천구-0013,37.46764732,126.9074964,금천구
426,V02Q1940480,19ADGG양천구-0030,양천구-0030,37.53971711,126.8816875,양천구
425,V02Q1940481,19ABJB양천구-0069,양천구-0069,37.52408281,126.8546531,양천구
424,V02Q1940482,19ABBB강동구-0007,강동구-0007,37.55148976,127.1330982,강동구
423,V02Q1940483,19ABBB금천구-0003,금천구-0003,37.46309492,126.9039678,금천구
422,V02Q1940484,19ABBB금천구-0005,금천구-0005,37.46802677,126.9021912,금천구
421,V02Q1940485,19ACDD은평구-0018,은평구-0018,37.59923312,126.9163873,은평구
420,V02Q1940486,19ACDD금천구-0012,금천구-0012,37.46670274,126.890697,금천구
419,V02Q1940487,19ABBB서대문구-0012,서대문구-0012,37.55886948,126.9590045,서대문구
418,V02Q1940488,19ADIM서대문구-0018,서대문구-0018,37.5821592,126.9394633,서대문구
417,V02Q1940489,19ABJB양천구-0041,양천구-0041,37.53077062,126.8645921,양천구
416,V02Q1940490,19ABJB마포구-0035,마포구-0035,37.545534,126.9410961,마포구
415,V02Q1940491,19ABJB성동구-0029,성동구-0029,37.568251,127.048139,성동구
414,V02Q1940492,19ACDD양천구-0024,양천구-0024,37.52818658,126.8601068,양천구
413,V02Q1940493,19ABJB관악구-0030,관악구-0030,37.48706543,126.9420381,관악구
412,V02Q1940494,19ABBB서대문구-0009,서대문구-0009,37.58744695,126.9445206,서대문구
411,V02Q1940495,19ADHH금천구-0022,금천구-0022,37.46145538,126.8900188,금천구
410,V02Q1940496,19ABJB성동구-0052,성동구-0052,37.53877565,127.0597607,성동구
409,V02Q1940497,19ABJB마포구-0056,마포구-0056,37.5383121,126.9478368,마포구
408,V02Q1940498,19ADII중구-0021,중구-0021,37.56078213,126.9955455,중구
407,V02Q1940499,19ACCC종로구-0006,종로구-0006,37.57496003,126.9702723,종로구
406,V02Q1940500,19ABBB중구-0014,중구-0014,37.56155266,127.0187487,중구
405,V02Q1940501,19ABJB성동구-0059,성동구-0059,37.55200342,127.0363244,성동구
404,V02Q1940502,19ABBB성동구-0006,성동구-0006,37.54081481,127.049564,성동구
403,V02Q1940503,19ABBB성동구-0010,성동구-0010,37.55401067,127.0688982,성동구
402,V02Q1940504,19ABBB성동구-0017,성동구-0017,37.55905889,127.0289608,성동구
401,V02Q1940505,19ABBB강동구-0017,강동구-0017,37.51723048,127.1438239,강동구
400,V02Q1940506,19ABBB광진구-0021,광진구-0021,37.53508967,127.0932207,광진구
399,V02Q1940507,19ABBB강동구-0013,강동구-0013,37.53127747,127.1232713,강동구
398,V02Q1940508,19ABBB중구-0010,중구-0010,37.55818846,126.9643308,중구
397,V02Q1940509,19ABBB서대문구-0010,서대문구-0010,37.58674357,126.9473291,서대문구
396,V02Q1940510,19ABJB관악구-0057,관악구-0057,37.49267131,126.9452685,관악구
395,V02Q1940511,19ABJB성동구-0054,성동구-0054,37.55265508,127.0290322,성동구
394,V02Q1940512,19ABBB관악구-0017,관악구-0017,37.47556168,126.9348911,관악구
393,V02Q1940513,19ABBB송파구-0006,송파구-0006,37.49417976,127.1549914,송파구
392,V02Q1940514,19ABBB서대문구-0011,서대문구-0011,37.59197867,126.9517166,서대문구
391,V02Q1940515,19BCFF구로구-0023,구로구-0023,37.50174862,126.8507697,구로구
390,V02Q1940516,19ABBB서대문구-0006,서대문구-0006,37.56506052,126.9543342,서대문구
389,V02Q1940517,19BCFF관약구-0025,관약구-0025,37.48248622,126.9264971,관악구
388,V02Q1940518,19ABBB서초구-0009,서초구-0009,37.51508377,127.0138565,서초구
387,V02Q1940519,19ABBB마포구-0008,마포구-0008,37.54719218,126.9344074,마포구
386,V02Q1940520,19ABBB서대문구-0002,서대문구-0002,37.57822552,126.9232322,서대문구
385,V02Q1940521,19ACEE마포구-0019,마포구-0019,37.5487627,126.925523,마포구
384,V02Q1940522,19ABBB종로구-0005,종로구-0005,37.57707481,127.0123665,종로구
383,V02Q1940523,19ABBB용산구-0002,용산구-0002,37.52568799,126.9992422,용산구
382,V02Q1940524,19ABBB용산구-0016,용산구-0016,37.55435463,126.9681312,용산구
381,V02Q1940525,19ABBB용산구-0013,용산구-0013,37.54226566,126.9607602,용산구
380,V02Q1940526,19ABBB성동구-0003,성동구-0003,37.54698492,127.0215794,성동구
379,V02Q1940527,19ABBB중구-0015,중구-0015,37.56898584,127.0218832,중구
378,V02Q1940528,19ABJB마포구-0031,마포구-0031,37.55530763,126.9470009,마포구
377,V02Q1940529,19ACCC중구-0017,중구-0017,37.5594009,127.0204385,중구
376,V02Q1940530,19ABJB성동구-0062,성동구-0062,37.54214419,127.0477518,성동구
375,V02Q1940531,19ACDD마포구-0018,마포구-0018,37.55488942,126.9362371,마포구
374,V02Q1940532,19ABBB관악구-0011,관악구-0011,37.47072788,126.9217951,관악구
373,V02Q1940533,19ABBB관악구-0006,관악구-0006,37.48305759,126.9079688,관악구
372,V02Q1940534,19ABJB마포구-0036,마포구-0036,37.55572217,126.9402897,마포구
371,V02Q1940535,19ABJB마포구-0060,마포구-0060,37.55049329,126.9362759,마포구
370,V02Q1940536,19ABBB중구-0001,중구-0001,37.56356092,126.9972196,중구
369,V02Q1940537,19ABJB관악구-0043,관악구-0043,37.47564681,126.952494,관악구
368,V02Q1940538,19ABBB관악구-0004,관악구-0004,37.48627768,126.936066,관악구
367,V02Q1940539,19ABBB종로구-0002,종로구-0002,37.57692043,127.0045137,종로구
366,V02Q1940540,19ABBB중구-0013,중구-0013,37.56531098,126.9844918,중구
365,V02Q1940541,19ABBB중구-0004,중구-0004,37.56276898,126.9767645,중구
364,V02Q1940542,19ABJB마포구-0034,마포구-0034,37.53539263,126.9444368,마포구
363,V02Q1940543,19ACDD서대문구-0016,서대문구-0016,37.59010207,126.9446623,서대문구
362,V02Q1940544,19ADHK중구-0025,중구-0025,37.56163971,127.001153,중구
361,V02Q1940545,19ABBB성동구-0007,성동구-0007,37.5463061,127.0436415,성동구
360,V02Q1940546,19ABBB중구-0005,중구-0005,37.56444847,127.0221103,중구
359,V02Q1940547,19ABJB관악구-0033,관악구-0033,37.47779149,126.9552974,관악구
358,V02Q1940548,19ABJB관악구-0029,관악구-0029,37.49124583,126.930777,관악구
357,V02Q1940549,19ABJB관악구-0035,관악구-0035,37.47563756,126.9221587,관악구
356,V02Q1940550,19ABJB관악구-0054,관악구-0054,37.48634806,126.9514941,관악구
355,V02Q1940551,19ABBB서대문구-0014,서대문구-0014,37.56877486,126.9608834,서대문구
354,V02Q1940552,19ABBB관악구-0014,관악구-0014,37.47639433,126.9156696,관악구
353,V02Q1940553,19ABBB중구-0012,중구-0012,37.56082689,126.996001,중구
352,V02Q1940554,19ADHK중구-0024,중구-0024,37.55728601,127.0091753,중구
351,V02Q1940555,19ABJB관악구-0058,관악구-0058,37.48547764,126.9474934,관악구
350,V02Q1940556,19ABBB성동구-0008,성동구-0008,37.54024156,127.0546753,성동구
349,V02Q1940557,19ABBB관악구-0016,관악구-0016,37.46927712,126.9316363,관악구
348,V02Q1940558,19ABJB관악구-0032,관악구-0032,37.47970435,126.9474737,관악구
347,V02Q1940559,19ACDD용산구-0018,용산구-0018,37.53293663,126.9912199,용산구
346,V02Q1940560,19ABJB관악구-0064,관악구-0064,37.49247703,126.9563107,관악구
345,V02Q1940561,19ABBB관악구-0002,관악구-0002,37.48519319,126.918737,관악구
344,V02Q1940562,19ABBB중구-0008,중구-0008,37.56554217,126.9910351,중구
343,V02Q1940563,19ABBB성동구-0013,성동구-0013,37.56412983,127.0314397,성동구
342,V02Q1940564,19ABBB중구-0009,중구-0009,37.56085957,127.0085631,중구
341,V02Q1940565,19ABJB성동구-0058,성동구-0058,37.54195012,127.0536124,성동구
340,V02Q1940566,19ADHH중구-0020,중구-0020,37.56723424,126.995185,중구
339,V02Q1940567,19ADHK중구-0028,중구-0028,37.56805562,126.9965099,중구
338,V02Q1940568,19ABBB중구-0006,중구-0006,37.56285073,127.0132604,중구
337,V02Q1940569,19ABBB서대문구-0001,서대문구-0001,37.56942137,126.9167554,서대문구
336,V02Q1940570,19ABBB중구-0002,중구-0002,37.55435867,127.0080426,중구
335,V02Q1940571,19ABBB용산구-0001,용산구-0001,37.54650411,126.9752365,용산구
334,V02Q1940572,19ABBB용산구-0007,용산구-0007,37.52111797,126.9717905,용산구
333,V02Q1940573,19ACEE중구-0019,중구-0019,37.56839081,127.0054393,중구
332,V02Q1940574,19ABBB용산구-0005,용산구-0005,37.53718194,126.9656951,용산구
331,V02Q1940575,19ABJB성동구-0049,성동구-0049,37.55582287,127.0323182,성동구
330,V02Q1940576,19ABJB마포구-0063,마포구-0063,37.57717666,126.896669,마포구
329,V02Q1940577,19ABBB용산구-0015,용산구-0015,37.52364288,126.993654,용산구
328,V02Q1940578,19ADHO용산구-0022,용산구-0022,37.52637263,127.0028846,용산구
327,V02Q1940579,19ABJB마포구-0055,마포구-0055,37.55962932,126.8976687,마포구
326,V02Q1940580,19ABJB성동구-0056,성동구-0056,37.56672984,127.0510584,성동구
325,V02Q1940581,19ABJB마포구-0026,마포구-0026,37.56142506,126.9016199,마포구
324,V02Q1940582,19ADIM성동구-0024,성동구-0024,37.54889736,127.0309606,성동구
323,V02Q1940583,19ABJB마포구-0054,마포구-0054,37.54520551,126.9233909,마포구
322,V02Q1940584,19ABBB용산구-0014,용산구-0014,37.54995512,126.9780201,용산구
321,V02Q1940585,19ACCC서대문구-0015,서대문구-0015,37.55882313,126.946573,서대문구
320,V02Q1940586,19ADHH마포구-0022,마포구-0022,37.55287788,126.9009012,마포구
319,V02Q1940587,19ABJB성동구-0031,성동구-0031,37.54667133,127.0621397,성동구
318,V02Q1940588,19ABJB성동구-0034,성동구-0034,37.55818867,127.0508266,성동구
317,V02Q1940589,19ABJB관악구-0045,관악구-0045,37.47647508,126.9364676,관악구
316,V02Q1940590,19ABBB성동구-0005,성동구-0005,37.56072357,127.0484251,성동구
315,V02Q1940591,19ABJB관악구-0063,관악구-0063,37.47891044,126.9492525,관악구
314,V02Q1940592,19ACEE서대문구-0017,서대문구-0017,37.5705585,126.959673,서대문구
313,V02Q1940593,19ABBB마포구-0004,마포구-0004,37.54694234,126.9302491,마포구
312,V02Q1940594,19ABBB성동구-0009,성동구-0009,37.54923179,127.0538775,성동구
311,V02Q1940595,19ABBB용산구-0006,용산구-0006,37.53439873,126.95138,용산구
310,V02Q1940596,19ACDD중구-0018,중구-0018,37.55904631,126.9803118,중구
309,V02Q1940597,19ADHK중구-0023,중구-0023,37.55619503,126.9811609,중구
308,V02Q1940598,19ABBB중구-0007,중구-0007,37.55172798,127.012144,중구
307,V02Q1940599,19ABBB중구-0011,중구-0011,37.55740456,127.0166075,중구
306,V02Q1940600,19ABBB용산구-0008,용산구-0008,37.52444602,126.9568426,용산구
305,V02Q1940601,19ABJB성동구-0035,성동구-0035,37.56026457,127.0480146,성동구
304,V02Q1940602,19ADHK중구-0029,중구-0029,37.55462362,126.980559,중구
303,V02Q1940603,19ABBB성동구-0014,성동구-0014,37.56336834,127.0559644,성동구
302,V02Q1940604,19ADHK중구-0022,중구-0022,37.56783722,126.9809414,중구
301,V02Q1940605,19ABBB마포구-0005,마포구-0005,37.55443,126.9154401,마포구
300,V02Q1940606,19ABJB마포구-0040,마포구-0040,37.55445921,126.9376924,마포구
299,V02Q1940607,19ACCC성동구-0018,성동구-0018,37.55887111,127.0385527,성동구
298,V02Q1940608,19ADIM중구-0030,중구-0030,37.55668898,126.9859042,중구
297,V02Q1940609,19ABJB마포구-0065,마포구-0065,37.55627539,126.9122386,마포구
296,V02Q1940610,19ABJB마포구-0042,마포구-0042,37.55614009,126.8965844,마포구
295,V02Q1940611,19ABJB마포구-0052,마포구-0052,37.54552807,126.9147568,마포구
1,V02Q1940612,19ABBB마포구-0003,마포구-0003,37.57807617,126.8951928,마포구
294,V02Q1940613,19ABBB마포구-0001,마포구-0001,37.55578891,126.9059843,마포구
293,V02Q1940614,19ABJB양천구-0035,양천구-0035,37.53754208,126.8717674,양천구
292,V02Q1940615,19ACEE성동구-0020,성동구-0020,37.55783854,127.0241481,성동구
291,V02Q1940616,19ABBB성동구-0012,성동구-0012,37.56044317,127.0308353,성동구
290,V02Q1940617,19ABBB성동구-0011,성동구-0011,37.5419721,127.0163706,성동구
289,V02Q1940618,19ABJB마포구-0062,마포구-0062,37.55713349,126.9544033,마포구
288,V02Q1940619,19ABJB마포구-0064,마포구-0064,37.54618548,126.9561104,마포구
287,V02Q1940620,19ABJB마포구-0037,마포구-0037,37.56519447,126.9035134,마포구
286,V02Q1940621,19ABJB마포구-0058,마포구-0058,37.54674236,126.9142464,마포구
285,V02Q1940622,19ADGG마포구-0020,마포구-0020,37.57048042,126.8965735,마포구
284,V02Q1940623,19ABJB성동구-0030,성동구-0030,37.56371986,127.039493,성동구
283,V02Q1940624,19ABJB마포구-0051,마포구-0051,37.55458164,126.9038541,마포구
282,V02Q1940625,19ABBB관악구-0020,관악구-0020,37.49069882,126.9587047,관악구
281,V02Q1940626,19ABJB마포구-0046,마포구-0046,37.55065466,126.9211923,마포구
280,V02Q1940627,19ABJB성동구-0046,성동구-0046,37.55181934,127.0673796,성동구
279,V02Q1940628,19ACDD성동구-0019,성동구-0019,37.56835683,127.0405289,성동구
278,V02Q1940629,19ABBB마포구-0009,마포구-0009,37.55689472,126.9615926,마포구
277,V02Q1940630,19ADHO용산구-0020,용산구-0020,37.52554041,126.9650708,용산구
276,V02Q1940631,19ABJB마포구-0043,마포구-0043,37.55647074,126.9485265,마포구
275,V02Q1940632,19ABJB성동구-0055,성동구-0055,37.56496432,127.0344748,성동구
274,V02Q1940633,19ABJB관악구-0044,관악구-0044,37.47051139,126.9409596,관악구
273,V02Q1940634,19ABJB마포구-0039,마포구-0039,37.55406743,126.9565258,마포구
272,V02Q1940635,19ABBB마포구-0002,마포구-0002,37.56127599,126.9033309,마포구
271,V02Q1940636,19ABBB성동구-0002,성동구-0002,37.55227266,127.0230202,성동구
270,V02Q1940637,19ABBB용산구-0011,용산구-0011,37.52544703,126.9688458,용산구
269,V02Q1940638,19ABBB마포구-0013,마포구-0013,37.5502932,126.9103908,마포구
268,V02Q1940639,19ABBB성동구-0015,성동구-0015,37.54960389,127.0329741,성동구
267,V02Q1940640,19ACCC마포구-0017,마포구-0017,37.5639051,126.9194904,마포구
266,V02Q1940641,19ABBB금천구-0010,금천구-0010,37.44671934,126.9102337,금천구
265,V02Q1940642,19ADGG성동구-0021,성동구-0021,37.56021552,127.0643391,성동구
264,V02Q1940643,19ABJB마포구-0038,마포구-0038,37.54433165,126.9129634,마포구
263,V02Q1940644,19ABBB성동구-0016,성동구-0016,37.56119718,127.034603,성동구
262,V02Q1940645,19ABJB관악구-0053,관악구-0053,37.46153901,126.9302475,관악구
261,V02Q1940646,19ABJB마포구-0057,마포구-0057,37.54767426,126.9113269,마포구
260,V02Q1940647,19ABBB마포구-0014,마포구-0014,37.54948025,126.958483,마포구
259,V02Q1940648,19ABBB용산구-0009,용산구-0009,37.53229458,126.9959865,용산구
258,V02Q1940649,19ABBB종로구-0009,종로구-0009,37.57616826,126.9688622,종로구
257,V02Q1940650,19ABBB마포구-0011,마포구-0011,37.54668774,126.9454005,마포구
256,V02Q1940651,19ABBB용산구-0004,용산구-0004,37.54623974,126.9847901,용산구
255,V02Q1940652,19ABJB관악구-0062,관악구-0062,37.48370843,126.9025203,관악구
254,V02Q1940653,19ABJB마포구-0047,마포구-0047,37.55310607,126.934626,마포구
253,V02Q1940654,19ADGG양천구-0021,양천구-0021,37.54304643,126.8836212,양천구
252,V02Q1940655,19ABBB종로구-0001,종로구-0001,37.58005084,126.9851462,종로구
251,V02Q1940656,19BCFF금천구-0018,금천구-0018,37.47351068,126.8921347,금천구
250,V02Q1940657,19ABBB관악구-0019,관악구-0019,37.48976067,126.9478324,관악구
249,V02Q1940658,19BCFF관약구-0026,관약구-0026,37.48355726,126.9256695,관악구
248,V02Q1940659,19ABJB양천구-0064,양천구-0064,37.53774885,126.8278791,양천구
247,V02Q1940660,19ABJB관악구-0059,관악구-0059,37.48712943,126.923453,관악구
246,V02Q1940661,19ABBB마포구-0015,마포구-0015,37.55231328,126.9466013,마포구
245,V02Q1940662,19ABJB관악구-0067,관악구-0067,37.47572644,126.9425353,관악구
244,V02Q1940663,19ABBB관악구-0013,관악구-0013,37.47474727,126.9777859,관악구
243,V02Q1940664,19ADHO용산구-0021,용산구-0021,37.52037062,126.9770268,용산구
242,V02Q1940665,19BCFF도봉구-0023,도봉구-0023,37.64068341,127.0354904,도봉구
241,V02Q1940666,19ABJB관악구-0060,관악구-0060,37.47047152,126.9679543,관악구
240,V02Q1940667,19ABJB관악구-0047,관악구-0047,37.49265835,126.9269739,관악구
239,V02Q1940668,19ACEE용산구-0019,용산구-0019,37.5190207,126.9805697,용산구
238,V02Q1940669,19ABJB관악구-0042,관악구-0042,37.4764274,126.9801351,관악구
237,V02Q1940670,19ADII성동구-0022,성동구-0022,37.53927918,127.0498732,성동구
236,V02Q1940671,19ABJB관악구-0038,관악구-0038,37.46377035,126.9256905,관악구
235,V02Q1940672,19ABJB관악구-0034,관악구-0034,37.48797466,126.9258106,관악구
234,V02Q1940673,19ABJB관악구-0055,관악구-0055,37.4879962,126.9182374,관악구
233,V02Q1940674,19ABBB관악구-0005,관악구-0005,37.47480843,126.9652601,관악구
232,V02Q1940675,19ABJB관악구-0065,관악구-0065,37.47827679,126.9395729,관악구
231,V02Q1940676,19ABJB관악구-0050,관악구-0050,37.4588853,126.9225194,관악구
230,V02Q1940677,19ABJB관악구-0056,관악구-0056,37.48458746,126.9070348,관악구
229,V02Q1940678,19ABJB관악구-0040,관악구-0040,37.48258121,126.942046,관악구
228,V02Q1940679,19ABBB송파구-0003,송파구-0003,37.49521273,127.1214388,송파구
227,V02Q1940680,19ABJB관악구-0046,관악구-0046,37.48932572,126.928863,관악구
226,V02Q1940681,19ABJB관악구-0041,관악구-0041,37.47559625,126.9735982,관악구
225,V02Q1940682,19ABJB관악구-0051,관악구-0051,37.46188726,126.9244554,관악구
224,V02Q1940683,19ABBB관악구-0012,관악구-0012,37.46211823,126.9191588,관악구
223,V02Q1940684,19ABJB마포구-0053,마포구-0053,37.54021108,126.9438638,마포구
222,V02Q1940685,19ABJB관악구-0061,관악구-0061,37.47839602,126.9162619,관악구
221,V02Q1940686,19ABBB용산구-0010,용산구-0010,37.54136163,126.9911287,용산구
220,V02Q1940687,19ABBB종로구-0028,종로구-0028,37.58117314,127.0057341,종로구
219,V02Q1940688,19ABJB마포구-0049,마포구-0049,37.56552044,126.9148609,마포구
218,V02Q1940689,19ABJB관악구-0037,관악구-0037,37.48334526,126.9377988,관악구
217,V02Q1940690,19ADHO금천구-0016,금천구-0016,37.44551467,126.9041242,금천구
216,V02Q1940691,19ABJB관악구-0068,관악구-0068,37.46625325,126.9307404,관악구
215,V02Q1940692,19ABJB관악구-0066,관악구-0066,37.49049222,126.9414301,관악구
214,V02Q1940693,19ADHO금천구-0015,금천구-0015,37.45606838,126.9003178,금천구
213,V02Q1940694,19ABJB관악구-0031,관악구-0031,37.48024081,126.9427081,관악구
212,V02Q1940695,19ABBB종로구-0007,종로구-0007,37.57191655,126.9619818,종로구
211,V02Q1940696,19ABBB마포구-0010,마포구-0010,37.56471491,126.9222725,마포구
210,V02Q1940697,19ADGG마포구-0021,마포구-0021,37.58756924,126.8829428,마포구
209,V02Q1940698,19ABBB용산구-0012,용산구-0012,37.53462672,127.0007359,용산구
208,V02Q1940699,19ABBB금천구-0007,금천구-0007,37.44999331,126.9129044,금천구
207,V02Q1940700,19ABBB마포구-0016,마포구-0016,37.54026182,126.9562101,마포구
206,V02Q1940701,19ABJB관악구-0049,관악구-0049,37.47373839,126.9176609,관악구
205,V02Q1940702,19ABBB금천구-0006,금천구-0006,37.45335154,126.904031,금천구
204,V02Q1940703,19ABJB관악구-0048,관악구-0048,37.48063434,126.9145819,관악구
203,V02Q1940704,19ABJB관악구-0036,관악구-0036,37.4632734,126.9180757,관악구
202,V02Q1940705,19ABJB양천구-0045,양천구-0045,37.52307169,126.848613,양천구
201,V02Q1940706,19ABBB송파구-0015,송파구-0015,37.50204913,127.1171108,송파구
200,V02Q1940707,19ABJB양천구-0059,양천구-0059,37.51549527,126.8608799,양천구
199,V02Q1940708,19ABBB송파구-0017,송파구-0017,37.51430062,127.0914778,송파구
198,V02Q1940709,19ABJB성동구-0060,성동구-0060,37.56944521,127.0446016,성동구
197,V02Q1940710,19ABBB종로구-0011,종로구-0011,37.57784312,127.0156288,종로구
196,V02Q1940711,19BCFF마포구-0024,마포구-0024,37.553799,126.9123651,마포구
195,V02Q1940712,19BBB강북구-0020,대기측정소-0015,37.64792279,127.011898,대기측정소
194,V02Q1940713,19ACEE송파구-0030,송파구-0030,37.51618536,127.1145406,송파구
193,V02Q1940714,19ACDD송파구-0029,송파구-0029,37.51334541,127.1068182,송파구
192,V02Q1940715,19ABJB양천구-0061,양천구-0061,37.51259339,126.8376519,양천구
191,V02Q1940716,19ABBB종로구-0008,종로구-0008,37.57595297,126.9581816,종로구
190,V02Q1940717,19ABBB송파구-0009,송파구-0009,37.48539023,127.1321718,송파구
189,V02Q1940718,19ABBB종로구-0031,종로구-0031,37.57389927,127.0046582,종로구
188,V02Q1940719,19ABBB종로구-0013,종로구-0013,37.57446434,126.9902439,종로구
187,V02Q1940720,19ABBB종로구-0016,종로구-0016,37.57443226,127.0108889,종로구
186,V02Q1940721,19ABBB종로구-0004,종로구-0004,37.58608068,127.0008483,종로구
185,V02Q1940722,19ABJB마포구-0050,마포구-0050,37.55482867,126.9259661,마포구
184,V02Q1940723,19ABJB마포구-0044,마포구-0044,37.55227897,126.9235272,마포구
183,V02Q1940724,19BCFF강남구-0026,강남구-0026,37.49732201,127.0513158,강남구
182,V02Q1940725,19ABJB관악구-0039,관악구-0039,37.47982135,126.9023653,관악구
181,V02Q1940726,19ABBB용산구-0003,용산구-0003,37.53901229,126.957917,용산구
180,V02Q1940727,19BCFF중랑구-0019,중랑구-0019,37.60504697,127.0762879,중랑구
179,V02Q1940728,19ABJB마포구-0032,마포구-0032,37.54496287,126.9471,마포구
178,V02Q1940729,19ABJB양천구-0063,양천구-0063,37.51306228,126.8320835,양천구
177,V02Q1940730,19ABBB금천구-0008,금천구-0008,37.43993479,126.9071726,금천구
176,V02Q1940731,19ACCC용산구-0017,용산구-0017,37.51798916,126.9853183,용산구
175,V02Q1940732,19ADHH양천구-0022,양천구-0022,37.52665506,126.8369618,양천구
174,V02Q1940733,19ABJB성동구-0051,성동구-0051,37.54818971,127.0565978,성동구
173,V02Q1940734,19ABBB송파구-0004,송파구-0004,37.5183379,127.1004663,송파구
172,V02Q1940735,19ABJB성동구-0027,성동구-0027,37.56840651,127.0336607,성동구
171,V02Q1940736,19ABBB송파구-0023,송파구-0023,37.50419493,127.1281877,송파구
170,V02Q1940737,19ABBB종로구-0003,종로구-0003,37.60542622,126.9674449,종로구
169,V02Q1940738,19ABJB성동구-0037,성동구-0037,37.55137214,127.0215542,성동구
168,V02Q1940739,19ABJB성동구-0032,성동구-0032,37.54976209,127.0196088,성동구
167,V02Q1940740,19ABJB양천구-0046,양천구-0046,37.52706161,126.8480605,양천구
166,V02Q1940741,19ABJB양천구-0037,양천구-0037,37.53575061,126.8785737,양천구
165,V02Q1940742,19ABBB송파구-0001,송파구-0001,37.50104027,127.1097395,송파구
164,V02Q1940743,19ABJB성동구-0063,성동구-0063,37.53641965,127.056427,성동구
163,V02Q1940744,19ABJB성동구-0053,성동구-0053,37.54475143,127.0531118,성동구
162,V02Q1940745,19ACCC송파구-0028,송파구-0028,37.49410576,127.1414902,송파구
161,V02Q1940746,19BCFF강북구-0018,강북구-0018,37.6321897,127.021742,강북구
160,V02Q1940747,19BCFF동작구-0021,동작구-0021,37.499726,126.9513962,동작구
159,V02Q1940748,19ABJB성동구-0064,성동구-0064,37.53736986,127.0508722,성동구
158,V02Q1940749,19ABJB양천구-0044,양천구-0044,37.52524025,126.8422566,양천구
157,V02Q1940750,19ABBB양천구-0014,양천구-0014,37.52197114,126.8359083,양천구
156,V02Q1940751,19BBB구로구-0027,대기측정소-0001,37.4984887,126.8895025,대기측정소
155,V02Q1940752,19ABBB도봉구-0026,대기측정소-0017,37.65416617,127.0292282,대기측정소
154,V02Q1940753,19ABJB성동구-0047,성동구-0047,37.54936466,127.0266557,성동구
153,V02Q1940754,19ABJB양천구-0048,양천구-0048,37.52165976,126.8426812,양천구
152,V02Q1940755,19ABBB노원구-0032,대기측정소-0008,37.65885611,127.0685008,대기측정소
151,V02Q1940756,19BCFF동작구-0019,동작구-0019,37.50007359,126.9324381,동작구
150,V02Q1940757,19ABBB송파구-0020,송파구-0020,37.49672263,127.1428573,송파구
149,V02Q1940758,19ABJB성동구-0040,성동구-0040,37.56011949,127.0316064,성동구
148,V02Q1940759,19ABJB양천구-0038,양천구-0038,37.53664596,126.8830174,양천구
147,V02Q1940760,19ABJB양천구-0049,양천구-0049,37.51760243,126.8469207,양천구
146,V02Q1940761,19ABJB성동구-0057,성동구-0057,37.56405244,127.0444844,성동구
145,V02Q1940762,19ABJB양천구-0032,양천구-0032,37.54024511,126.8644211,양천구
144,V02Q1940763,19ABBB강북구-0023,강북구-0023,37.62659207,127.0346233,강북구
143,V02Q1940764,19ABBB송파구-0010,송파구-0010,37.51530106,127.1340732,송파구
142,V02Q1940765,19ABJB양천구-0056,양천구-0056,37.51073166,126.8705354,양천구
141,V02Q1940766,19ABJB양천구-0033,양천구-0033,37.54565284,126.8631017,양천구
140,V02Q1940767,19ABBB송파구-0012,송파구-0012,37.50260385,127.0923109,송파구
139,V02Q1940768,19ABBB송파구-0025,송파구-0025,37.47825069,127.1392446,송파구
138,V02Q1940769,19ABJB양천구-0058,양천구-0058,37.52786532,126.8557268,양천구
137,V02Q1940770,19BCFF강동구-0023,강동구-0023,37.5498763,127.1294778,강동구
136,V02Q1940771,19ABJB양천구-0040,양천구-0040,37.53513426,126.8835081,양천구
135,V02Q1940772,19ABBB송파구-0013,송파구-0013,37.50363119,127.1035033,송파구
134,V02Q1940773,19ABJB양천구-0054,양천구-0054,37.52856046,126.8591755,양천구
133,V02Q1940774,19ABJB양천구-0042,양천구-0042,37.53851648,126.878244,양천구
132,V02Q1940775,19ABBB송파구-0014,송파구-0014,37.50580146,127.1096638,송파구
131,V02Q1940776,19ABJB양천구-0039,양천구-0039,37.5396843,126.8750264,양천구
130,V02Q1940777,19ABBB금천구-0009,금천구-0009,37.45887058,126.9059122,금천구
129,V02Q1940778,19ABJB양천구-0062,양천구-0062,37.52259074,126.8755481,양천구
128,V02Q1940779,19BBB-광진구-0024,대기측정소-0003,37.54495873,127.0943048,대기측정소
127,V02Q1940780,19ABBB중구-0031,대기측정소-0009,37.5646989,126.975981,대기측정소
126,V02Q1940781,19ABBB송파구-0022,송파구-0022,37.50615368,127.0847562,송파구
125,V02Q1940782,19BBB강서구-0031,대기측정소-0016,37.54467828,126.8351042,대기측정소
124,V02Q1940783,19BCFF도봉구-0025,도봉구-0025,37.6396453,127.0380532,도봉구
123,V02Q1940784,19ABBB송파구-0002,송파구-0002,37.49824776,127.1262966,송파구
122,V02Q1940785,19ABBB동대문구-0022,대기측정소-0021,37.57614571,127.0288362,대기측정소
121,V02Q1940786,19ABBB성동구-0065,대기측정소-0019,37.54210154,127.0496713,대기측정소
120,V02Q1940787,19ABBB송파구-0018,송파구-0018,37.51295504,127.0946619,송파구
119,V02Q1940788,19ABBB송파구-0021,송파구-0021,37.50954786,127.0741524,송파구
118,V02Q1940789,19BBB-강남구-0034,대기측정소-0007,37.51755161,127.0479951,대기측정소
117,V02Q1940790,19BBB강동구-0029,강동구-0029,37.51427828,127.112259,강동구
116,V02Q1940791,19ABBB송파구-0007,송파구-0007,37.49638178,127.1490194,송파구
115,V02Q1940792,19ABJB양천구-0034,양천구-0034,37.53842273,126.86453,양천구
114,V02Q1940793,19ABBB송파구-0005,송파구-0005,37.49345737,127.146171,송파구
113,V02Q1940794,19ABJB양천구-0060,양천구-0060,37.54573201,126.8677706,양천구
112,V02Q1940795,19ABJB양천구-0066,양천구-0066,37.5240969,126.8372588,양천구
111,V02Q1940796,19ABBB종로구-0012,종로구-0012,37.57484815,127.0199828,종로구
110,V02Q1940797,19ABBB종로구-0023,종로구-0023,37.59737666,126.9634322,종로구
109,V02Q1940798,19ABBB강동구-0029,대기측정소-0002,37.54503786,127.136812,대기측정소
108,V02Q1940799,19BCFF도봉구-0019,도봉구-0019,37.6378168,127.038271,도봉구
107,V02Q1940800,19ABBB송파구-0019,송파구-0019,37.51999286,127.1122492,송파구
106,V02Q1940801,19ABJB양천구-0055,양천구-0055,37.51402198,126.8740014,양천구
105,V02Q1940802,19ABBB종로구-0035,종로구-0035,37.60528332,126.9667378,종로구
104,V02Q1940803,19ABJB양천구-0065,양천구-0065,37.52303768,126.8722936,양천구
103,V02Q1940804,19ABBB양천구-0007,양천구-0007,37.51585417,126.8539517,양천구
102,V02Q1940805,19ABJB양천구-0068,양천구-0068,37.51324732,126.8349248,양천구
101,V02Q1940806,19ABJB양천구-0070,양천구-0070,37.54803199,126.8667974,양천구
100,V02Q1940807,19ABBB종로구-0026,종로구-0026,37.57311562,127.020059,종로구
99,V02Q1940808,19BCFF종로구-0039,종로구-0039,37.56874524,126.9687649,종로구
98,V02Q1940809,19ADIM양천구-0023,양천구-0023,37.54364297,126.8813523,양천구
97,V02Q1940810,19ABBB종로구-0032,종로구-0032,37.57367794,127.0132041,종로구
96,V02Q1940811,19ADHH송파구-0033,송파구-0033,37.52727312,127.1162491,송파구
95,V02Q1940812,19CBIN광진구-0023,광진구-0023,37.54983788,127.1104882,광진구
94,V02Q1940813,19CBIN마포구-0067,마포구-0067,37.55461778,126.895956,마포구
93,V02Q1940814,19ABBB양천구-0005,양천구-0005,37.51938461,126.8546681,양천구
92,V02Q1940815,19CBIN광진구-0022,광진구-0022,37.52999155,127.0710049,광진구
91,V02Q1940816,19CBIN서초구-0026,서초구-0026,37.51241208,126.9986828,서초구
90,V02Q1940817,19ABBB종로구-0037,종로구-0037,37.5844799,126.9969232,종로구
89,V02Q1940818,19ABBB종로구-0015,종로구-0015,37.57074131,127.0163741,종로구
88,V02Q1940819,19ADHO송파구-0035,송파구-0035,37.50734426,127.1046886,송파구
87,V02Q1940820,19ADHO송파구-0036,송파구-0036,37.51105423,127.1022618,송파구
86,V02Q1940821,19ADHO송파구-0034,송파구-0034,37.50283277,127.1086949,송파구
85,V02Q1940822,19ABBB종로구-0022,종로구-0022,37.57542384,126.9577806,종로구
84,V02Q1940823,19ABBB강북구-0022,강북구-0022,37.63506161,127.0181629,강북구
83,V02Q1940824,19CBIN강서구-0030,강서구-0030,37.58481256,126.8215868,강서구
82,V02Q1940825,19ABBB송파구-0024,송파구-0024,37.53825651,127.1219514,송파구
81,V02Q1940826,19ACEE양천구-0020,양천구-0020,37.52038424,126.878025,양천구
80,V02Q1940827,19ABBB종로구-0029,종로구-0029,37.58325045,127.005815,종로구
79,V02Q1940828,19ABJB성동구-0025,성동구-0025,37.56133205,127.0396888,성동구
78,V02Q1940829,19CBIN영등포구-0031,영등포구-0031,37.53727135,126.9043173,영등포구
77,V02Q1940830,19CBIN용산구-0023,용산구-0023,37.52148869,126.9594472,용산구
76,V02Q1940831,19CBIN강동구-0028,강동구-0028,37.56700001,127.1368127,강동구
75,V02Q1940832,19ABBB송파구-0026,송파구-0026,37.51176831,127.1242095,송파구
74,V02Q1940833,19CBIN마포구-0066,마포구-0066,37.57131077,126.8708252,마포구
73,V02Q1940834,19ABBB동작구-0027,대기측정소-0011,37.48098219,126.971649,대기측정소
72,V02Q1940835,19ABJB양천구-0053,양천구-0053,37.52115715,126.86114,양천구
71,V02Q1940836,19CBIN영등포구-0030,영등포구-0030,37.52600465,126.9133532,영등포구
70,V02Q1940837,19ABBB종로구-0017,종로구-0017,37.58414084,126.9705631,종로구
69,V02Q1940838,19CBIN송파구-0037,송파구-0037,37.51841537,127.0680591,송파구
68,V02Q1940839,19ABBB종로구-0030,종로구-0030,37.57121882,126.9906086,종로구
67,V02Q1940840,19ABBB종로구-0038,종로구-0038,37.58188025,126.9981525,종로구
66,V02Q1940841,19ABBB종로구-0014,종로구-0014,37.57203734,127.0050414,종로구
65,V02Q1940842,19ABJB성동구-0042,성동구-0042,37.55214248,127.0355848,성동구
64,V02Q1940843,19ABBB종로구-0021,종로구-0021,37.57893651,126.9859126,종로구
63,V02Q1940844,19ABBB종로구-0034,종로구-0034,37.57894032,127.0144864,종로구
62,V02Q1940845,19ABBB송파구-0008,송파구-0008,37.48976406,127.1242858,송파구
61,V02Q1940846,19BCFF도봉구-0018,도봉구-0018,37.63739638,127.0390037,도봉구
60,V02Q1940847,19ABBB송파구-0016,송파구-0016,37.48968349,127.1119082,송파구
59,V02Q1940848,19ABBB종로구-0027,종로구-0027,37.57769818,127.006748,종로구
58,V02Q1940849,19ABJB양천구-0043,양천구-0043,37.53555966,126.8328365,양천구
57,V02Q1940850,19ABBB영등포구-0032,대기측정소-0004,37.52497813,126.8974438,대기측정소
56,V02Q1940851,19BCFF강동구-0022,강동구-0022,37.55039085,127.1282922,강동구
55,V02Q1940852,19ABBB서대문구-0020,대기측정소-0022,37.59374035,126.9497638,대기측정소
54,V02Q1940853,19BCFF강서구-0025,강서구-0025,37.53521949,126.8398536,강서구
53,V02Q1940854,19ABBB마포구-0068,대기측정소-0012,37.5555906,126.905533,대기측정소
52,V02Q1940855,19ABBB양천구-0071,대기측정소-0013,37.52455321,126.8557892,대기측정소
51,V02Q1940856,19ABBB용산구-0024,대기측정소-0005,37.5403991,127.0047736,대기측정소
50,V02Q1940857,19ACDD종로구-0019,종로구-0019,37.58801836,126.9838569,종로구
49,V02Q1940858,19BCFF구로구-0021,구로구-0021,37.48821616,126.8851381,구로구
48,V02Q1940859,19ABBB종로구-0018,종로구-0018,37.59243151,126.9640906,종로구
47,V02Q1940860,19BCFF광진구-0020,광진구-0020,37.5334424,127.0809633,광진구
46,V02Q1940861,19ABBB양천구-0016,양천구-0016,37.50908951,126.8668465,양천구
45,V02Q1940862,19BCFF구로구-0020,구로구-0020,37.48887854,126.8851157,구로구
44,V02Q1940863,19ABBB양천구-0006,양천구-0006,37.51887605,126.8710894,양천구
43,V02Q1940864,19ABBB양천구-0015,양천구-0015,37.52576762,126.8753744,양천구
42,V02Q1940865,19ABBB양천구-0001,양천구-0001,37.54645142,126.872103,양천구
41,V02Q1940866,19ABJB성동구-0048,성동구-0048,37.5580386,127.0296494,성동구
40,V02Q1940867,19ABBB양천구-0002,양천구-0002,37.54502804,126.8646607,양천구
39,V02Q1940868,19ABJB성동구-0045,성동구-0045,37.56051284,127.0528535,성동구
38,V02Q1940869,19ABBB양천구-0004,양천구-0004,37.52535041,126.837774,양천구
37,V02Q1940870,19ABJB성동구-0033,성동구-0033,37.53810274,127.0468807,성동구
36,V02Q1940871,19ABJB성동구-0044,성동구-0044,37.57114665,127.037106,성동구
35,V02Q1940872,19ABBB은평구-0021,대기측정소-0014,37.61059265,126.9329957,대기측정소
34,V02Q1940873,19ABBB송파구-0027,송파구-0027,37.53247211,127.1143011,송파구
33,V02Q1940874,19ABJB양천구-0067,양천구-0067,37.51933652,126.8500062,양천구
32,V02Q1940875,19ABBB종로구-0033,종로구-0033,37.57852949,127.009068,종로구
31,V02Q1940876,19ABJB양천구-0057,양천구-0057,37.54305082,126.8690922,양천구
30,V02Q1940877,19ABBB종로구-0036,종로구-0036,37.60787019,126.9563725,종로구
29,V02Q1940878,19CBIN영등포구-0029,영등포구-0029,37.52441417,126.9370134,영등포구
28,V02Q1940879,19ABBB성북구-0025,대기측정소-0023,37.60666796,127.0273181,대기측정소
27,V02Q1940880,19ABBB금천구-0024,대기측정소-0020,37.45237475,126.908304,대기측정소
26,V02Q1940881,19ACEE종로구-0020,종로구-0020,37.58027207,127.0030684,종로구
25,V02Q1940882,19ABBB중랑구-0023,대기측정소-0010,37.58489888,127.0940258,대기측정소
24,V02Q1940883,19ABBB종로구-0024,종로구-0024,37.57646196,126.9655363,종로구
23,V02Q1940884,19ABBB관악구-0069,대기측정소-0006,37.48739741,126.9271244,대기측정소
22,V02Q1940885,19BCFF노원구-0024,노원구-0024,37.65989698,127.0685417,노원구
21,V02Q1940886,19ABBB종로구-0025,종로구-0025,37.58243882,126.9821042,종로구
20,V02Q1940887,19ABBB송파구-0038,대기측정소-0024,37.50274913,127.0925242,대기측정소
19,V02Q1940888,19BCFF광진구-0019,광진구-0019,37.56307353,127.0819947,광진구
18,V02Q1940889,19BCFF도봉구-0024,도봉구-0024,37.63994636,127.0360107,도봉구
17,V02Q1940941,19BCFF송파구-0031,송파구-0031,37.50908813,127.0840569,송파구
16,V02Q1940942,19BCFF양천구-0026,양천구-0026,37.53246263,126.8330763,양천구
15,V02Q1940943,19BCFF양천구-0028,양천구-0028,37.54850717,126.8646481,양천구
14,V02Q1940944,19BCFF중랑구-0020,중랑구-0020,37.60504164,127.0754326,중랑구
13,V02Q1940945,19BCFF마포구-0025,마포구-0025,37.55524371,126.9069028,마포구
12,V02Q1940946,19BCFF양천구-0025,양천구-0025,37.534444,126.8347904,양천구
11,V02Q1940947,19BCFF동작구-0020,동작구-0020,37.4990258,126.9520123,동작구
10,V02Q1940948,19BCFF금천구-0021,금천구-0021,37.47007655,126.907223,금천구
9,V02Q1940949,19BCFF강북구-0017,강북구-0017,37.6303757,127.0226279,강북구
8,V02Q1940950,19BCFF노원구-0025,노원구-0025,37.62280993,127.0749633,노원구
7,V02Q1940951,19BCFF양천구-0027,양천구-0027,37.53124609,126.8361285,양천구
6,V02Q1940952,19BCFF동작구-0022,동작구-0022,37.48870857,126.9786333,동작구
5,V02Q1940953,19BCFF강남구-0028,강남구-0028,37.48903041,127.0678834,강남구
4,V02Q1940954,19BCFF강남구-0027,강남구-0027,37.508671,127.0227914,강남구
3,V02Q1940955,19ABBB서초구-0027,대기측정소-0018,37.50458059,126.9945012,대기측정소
851,V02Q1940935,19중구2-0032,대기측정소-0025,37.5648,126.975981,대기측정소
